{"type": "FeatureCollection", "features": [ {"type": "Feature", "properties": {"norad_id": 28649, "name": "IRS-P5 (CARTOSAT-1)", "group": "resource", "lat": 39.26998665831013, "lon": -163.6035740124182, "alt_km": 593.8384489533173, "timestamp": "2025-12-09T14:52:25.822335+00:00", "meta": {"OBJECT_NAME": "IRS-P5 (CARTOSAT-1)", "OBJECT_ID": "2005-017A", "EPOCH": "2025-12-09T07:48:05.699808", "MEAN_MOTION": 14.90387577, "ECCENTRICITY": 0.0001443, "INCLINATION": 97.5496, "RA_OF_ASC_NODE": 9.8897, "ARG_OF_PERICENTER": 47.2834, "MEAN_ANOMALY": 312.8506, "EPHEMERIS_TYPE": 0, "CLASSIFICATION_TYPE": "U", "NORAD_CAT_ID": 28649, "ELEMENT_SET_NO": 999, "REV_AT_EPOCH": 11553, "BSTAR": 0.00024979701, "MEAN_MOTION_DOT": 2.38e-05, "MEAN_MOTION_DDOT": 0}, "tle": {"line1": "1 28649U 05017A   25343.32506597  .00002380  00000+0  24980-3 0  9994", "line2": "2 28649  97.5496   9.8897 0001443  47.2834 312.8506 14.90387577115533"}}, "geometry": {"type": "Point", "coordinates": [-163.6035740124182, 39.26998665831013]}}, {"type": "Feature", "properties": {"norad_id": 28893, "name": "SINAH 1", "group": "resource", "lat": 68.16149460289559, "lon": 90.91525240727682, "alt_km": 671.2605837071123, "timestamp": "2025-12-09T14:52:25.822345+00:00", "meta": {"OBJECT_NAME": "SINAH 1", "OBJECT_ID": "2005-043D", "EPOCH": "2025-12-09T06:21:15.761664", "MEAN_MOTION": 14.63956923, "ECCENTRICITY": 0.0015169, "INCLINATION": 98.2601, "RA_OF_ASC_NODE": 111.8128, "ARG_OF_PERICENTER": 147.3178, "MEAN_ANOMALY": 212.8966, "EPHEMERIS_TYPE": 0, "CLASSIFICATION_TYPE": "U", "NORAD_CAT_ID": 28893, "ELEMENT_SET_NO": 999, "REV_AT_EPOCH": 7273, "BSTAR": 0.00019052924, "MEAN_MOTION_DOT": 9.5e-06, "MEAN_MOTION_DDOT": 0}, "tle": {"line1": "1 28893U 05043D   25343.26476576  .00000950  00000+0  19053-3 0  9996", "line2": "2 28893  98.2601 111.8128 0015169 147.3178 212.8966 14.63956923 72734"}}, "geometry": {"type": "Point", "coordinates": [90.91525240727682, 68.16149460289559]}}, {"type": "Feature", "properties": {"norad_id": 29079, "name": "EROS B", "group": "resource", "lat": -3.2766007219302735, "lon": 100.47069672170467, "alt_km": 370.8653812791181, "timestamp": "2025-12-09T14:52:25.822357+00:00", "meta": {"OBJECT_NAME": "EROS B", "OBJECT_ID": "2006-014A", "EPOCH": "2025-12-09T07:13:28.060608", "MEAN_MOTION": 15.66862645, "ECCENTRICITY": 0.00016248, "INCLINATION": 97.3477, "RA_OF_ASC_NODE": 99.7142, "ARG_OF_PERICENTER": 281.9694, "MEAN_ANOMALY": 78.1384, "EPHEMERIS_TYPE": 0, "CLASSIFICATION_TYPE": "U", "NORAD_CAT_ID": 29079, "ELEMENT_SET_NO": 999, "REV_AT_EPOCH": 9026, "BSTAR": 0.001700954, "MEAN_MOTION_DOT": 0.00183197, "MEAN_MOTION_DDOT": 0}, "tle": {"line1": "1 29079U 06014A   25343.30101922  .00183197  00000+0  17010-2 0  9992", "line2": "2 29079  97.3477  99.7142 0001624 281.9694  78.1384 15.66862645 90267"}}, "geometry": {"type": "Point", "coordinates": [100.47069672170467, -3.2766007219302735]}}, {"type": "Feature", "properties": {"norad_id": 29228, "name": "RESURS-DK 1", "group": "resource", "lat": 11.995466079284604, "lon": -74.55252451026078, "alt_km": 530.7888558552859, "timestamp": "2025-12-09T14:52:25.822367+00:00", "meta": {"OBJECT_NAME": "RESURS-DK 1", "OBJECT_ID": "2006-021A", "EPOCH": "2025-12-08T19:05:06.967392", "MEAN_MOTION": 15.12128967, "ECCENTRICITY": 0.00076083, "INCLINATION": 69.9338, "RA_OF_ASC_NODE": 112.0315, "ARG_OF_PERICENTER": 262.3971, "MEAN_ANOMALY": 97.6331, "EPHEMERIS_TYPE": 0, "CLASSIFICATION_TYPE": "U", "NORAD_CAT_ID": 29228, "ELEMENT_SET_NO": 999, "REV_AT_EPOCH": 7378, "BSTAR": 0.00029266812, "MEAN_MOTION_DOT": 4.953e-05, "MEAN_MOTION_DDOT": 0}, "tle": {"line1": "1 29228U 06021A   25342.79521953  .00004953  00000+0  29267-3 0  9998", "line2": "2 29228  69.9338 112.0315 0007608 262.3971  97.6331 15.12128967 73783"}}, "geometry": {"type": "Point", "coordinates": [-74.55252451026078, 11.995466079284604]}}, {"type": "Feature", "properties": {"norad_id": 29268, "name": "ARIRANG-2 (KOMPSAT-2)", "group": "resource", "lat": -30.226554633143845, "lon": 176.8404603344579, "alt_km": 675.1768729816376, "timestamp": "2025-12-09T14:52:25.822378+00:00", "meta": {"OBJECT_NAME": "ARIRANG-2 (KOMPSAT-2)", "OBJECT_ID": "2006-031A", "EPOCH": "2025-12-09T07:22:57.177408", "MEAN_MOTION": 14.64488189, "ECCENTRICITY": 0.00136851, "INCLINATION": 97.8259, "RA_OF_ASC_NODE": 171.9475, "ARG_OF_PERICENTER": 320.8525, "MEAN_ANOMALY": 164.043, "EPHEMERIS_TYPE": 0, "CLASSIFICATION_TYPE": "U", "NORAD_CAT_ID": 29268, "ELEMENT_SET_NO": 999, "REV_AT_EPOCH": 3368, "BSTAR": 9.0583477e-05, "MEAN_MOTION_DOT": 4.35e-06, "MEAN_MOTION_DDOT": 0}, "tle": {"line1": "1 29268U 06031A   25343.30760622  .00000435  00000+0  90583-4 0  9990", "line2": "2 29268  97.8259 171.9475 0013685 320.8525 164.0430 14.64488189 33682"}}, "geometry": {"type": "Point", "coordinates": [176.8404603344579, -30.226554633143845]}}, {"type": "Feature", "properties": {"norad_id": 29709, "name": "LAPAN-TUBSAT", "group": "resource", "lat": 26.025079507878782, "lon": -30.288247289146092, "alt_km": 605.3726899862295, "timestamp": "2025-12-09T14:52:25.822389+00:00", "meta": {"OBJECT_NAME": "LAPAN-TUBSAT", "OBJECT_ID": "2007-001A", "EPOCH": "2025-12-09T06:40:25.649760", "MEAN_MOTION": 14.85664578, "ECCENTRICITY": 0.00137118, "INCLINATION": 98.1255, "RA_OF_ASC_NODE": 333.3633, "ARG_OF_PERICENTER": 84.3178, "MEAN_ANOMALY": 275.9599, "EPHEMERIS_TYPE": 0, "CLASSIFICATION_TYPE": "U", "NORAD_CAT_ID": 29709, "ELEMENT_SET_NO": 999, "REV_AT_EPOCH": 2295, "BSTAR": 0.00019608263, "MEAN_MOTION_DOT": 1.645e-05, "MEAN_MOTION_DDOT": 0}, "tle": {"line1": "1 29709U 07001A   25343.27807465  .00001645  00000+0  19608-3 0  9993", "line2": "2 29709  98.1255 333.3633 0013711  84.3178 275.9599 14.85664578 22955"}}, "geometry": {"type": "Point", "coordinates": [-30.288247289146092, 26.025079507878782]}}, {"type": "Feature", "properties": {"norad_id": 31113, "name": "HAIYANG-1B", "group": "resource", "lat": 14.311005377125275, "lon": 150.1690043828206, "alt_km": 794.4000073119187, "timestamp": "2025-12-09T14:52:25.822400+00:00", "meta": {"OBJECT_NAME": "HAIYANG-1B", "OBJECT_ID": "2007-010A", "EPOCH": "2025-12-08T23:00:03.967200", "MEAN_MOTION": 14.30962926, "ECCENTRICITY": 0.0014422, "INCLINATION": 98.331, "RA_OF_ASC_NODE": 327.3928, "ARG_OF_PERICENTER": 48.4955, "MEAN_ANOMALY": 311.7464, "EPHEMERIS_TYPE": 0, "CLASSIFICATION_TYPE": "U", "NORAD_CAT_ID": 31113, "ELEMENT_SET_NO": 999, "REV_AT_EPOCH": 97342, "BSTAR": 9.0235e-05, "MEAN_MOTION_DOT": 1.96e-06, "MEAN_MOTION_DDOT": 0}, "tle": {"line1": "1 31113U 07010A   25342.95837925  .00000196  00000+0  90235-4 0  9999", "line2": "2 31113  98.3310 327.3928 0014422  48.4955 311.7464 14.30962926973420"}}, "geometry": {"type": "Point", "coordinates": [150.1690043828206, 14.311005377125275]}}, {"type": "Feature", "properties": {"norad_id": 31598, "name": "COSMO-SKYMED 1", "group": "resource", "lat": -49.08140806545494, "lon": -20.19992385747453, "alt_km": 587.6304070707283, "timestamp": "2025-12-09T14:52:25.822411+00:00", "meta": {"OBJECT_NAME": "COSMO-SKYMED 1", "OBJECT_ID": "2007-023A", "EPOCH": "2025-12-09T07:25:41.077344", "MEAN_MOTION": 14.95724705, "ECCENTRICITY": 0.00010513, "INCLINATION": 97.8835, "RA_OF_ASC_NODE": 168.6865, "ARG_OF_PERICENTER": 82.2894, "MEAN_ANOMALY": 277.8445, "EPHEMERIS_TYPE": 0, "CLASSIFICATION_TYPE": "U", "NORAD_CAT_ID": 31598, "ELEMENT_SET_NO": 999, "REV_AT_EPOCH": 139, "BSTAR": 0.00053513055, "MEAN_MOTION_DOT": 5.903e-05, "MEAN_MOTION_DDOT": 0}, "tle": {"line1": "1 31598U 07023A   25343.30950321  .00005903  00000+0  53513-3 0  9994", "line2": "2 31598  97.8835 168.6865 0001051  82.2894 277.8445 14.95724705  1392"}}, "geometry": {"type": "Point", "coordinates": [-20.19992385747453, -49.08140806545494]}}, {"type": "Feature", "properties": {"norad_id": 31698, "name": "TERRASAR-X", "group": "resource", "lat": -16.84384457389905, "lon": -8.686080532094978, "alt_km": 513.6045302349157, "timestamp": "2025-12-09T14:52:25.822421+00:00", "meta": {"OBJECT_NAME": "TERRASAR-X", "OBJECT_ID": "2007-026A", "EPOCH": "2025-12-08T12:04:27.872832", "MEAN_MOTION": 15.19158704, "ECCENTRICITY": 0.0001724, "INCLINATION": 97.4451, "RA_OF_ASC_NODE": 347.9445, "ARG_OF_PERICENTER": 89.3855, "MEAN_ANOMALY": 270.7577, "EPHEMERIS_TYPE": 0, "CLASSIFICATION_TYPE": "U", "NORAD_CAT_ID": 31698, "ELEMENT_SET_NO": 999, "REV_AT_EPOCH": 2427, "BSTAR": 0.00014009, "MEAN_MOTION_DOT": 2.877e-05, "MEAN_MOTION_DDOT": 0}, "tle": {"line1": "1 31698U 07026A   25342.50310038  .00002877  00000+0  14009-3 0  9998", "line2": "2 31698  97.4451 347.9445 0001724  89.3855 270.7577 15.19158704 24278"}}, "geometry": {"type": "Point", "coordinates": [-8.686080532094978, -16.84384457389905]}}, {"type": "Feature", "properties": {"norad_id": 32060, "name": "WORLDVIEW-1 (WV-1)", "group": "resource", "lat": -75.29687251010314, "lon": 130.76250824733486, "alt_km": 499.8201332263816, "timestamp": "2025-12-09T14:52:25.822431+00:00", "meta": {"OBJECT_NAME": "WORLDVIEW-1 (WV-1)", "OBJECT_ID": "2007-041A", "EPOCH": "2025-12-09T07:20:10.865184", "MEAN_MOTION": 15.24599684, "ECCENTRICITY": 7.422e-05, "INCLINATION": 97.3839, "RA_OF_ASC_NODE": 100.8353, "ARG_OF_PERICENTER": 103.2167, "MEAN_ANOMALY": 256.9153, "EPHEMERIS_TYPE": 0, "CLASSIFICATION_TYPE": "U", "NORAD_CAT_ID": 32060, "ELEMENT_SET_NO": 999, "REV_AT_EPOCH": 1395, "BSTAR": 0.00045019607, "MEAN_MOTION_DOT": 0.00011036, "MEAN_MOTION_DDOT": 0}, "tle": {"line1": "1 32060U 07041A   25343.30568131  .00011036  00000+0  45020-3 0  9991", "line2": "2 32060  97.3839 100.8353 0000742 103.2167 256.9153 15.24599684 13957"}}, "geometry": {"type": "Point", "coordinates": [130.76250824733486, -75.29687251010314]}}]}